PROGRESS-MS 25          
1 58460U 23184A   24115.54259257  .00037767  00000+0  64747-3 0  9993
2 58460  51.6404 221.3990 0004715  97.4608  12.6593 15.50814581450229
BEAK                    
1 58612U 98067WD  24115.49249803  .00177242  00000+0  12913-2 0  9994
2 58612  51.6328 212.3057 0004765 347.3303  12.7574 15.72212408 20071
TIANZHOU-7              
1 58811U 24013A   24114.86164445  .00035847  00000+0  36151-3 0  9998
2 58811  41.4685  54.9225 0005436  75.6017 284.5427 15.64626701449911
CYGNUS NG-20            
1 58898U 24021A   24115.54259257  .00037767  00000+0  64747-3 0  9999
2 58898  51.6404 221.3990 0004715  97.4608  12.6593 15.50814581450224
PROGRESS-MS 26          
1 58961U 24029A   24115.54259257  .00037767  00000+0  64747-3 0  9998
2 58961  51.6404 221.3990 0004715  97.4608  12.6593 15.50814581450225
CREW DRAGON 8           
1 59097U 24042A   24115.54259257  .00037767  00000+0  64747-3 0  9994
2 59097  51.6404 221.3990 0004715  97.4608  12.6593 15.50814581450226
DRAGON CRS-30           
1 59287U 24054A   24115.54259257  .00037767  00000+0  64747-3 0  9998
2 59287  51.6404 221.3990 0004715  97.4608  12.6593 15.50814581450227
SOYUZ-MS 25             
1 59294U 24055A   24115.54259257  .00037767  00000+0  64747-3 0  9997
2 59294  51.6404 221.3990 0004715  97.4608  12.6593 15.50814581450225
MICROORBITER-1          
1 59483U 98067WF  24115.50917565  .00111358  00000+0  16974-2 0  9997
2 59483  51.6375 221.4094 0002393  83.7493 276.3770 15.53612475  2105
CURTIS                  
1 59507U 98067WG  24115.31697043  .00094102  00000+0  14628-2 0  9990
2 59507  51.6368 222.3760 0001536  98.3334 261.7830 15.53153397  2083
KASHIWA                 
1 59508U 98067WH  24115.50894205  .00124562  00000+0  18875-2 0  9993
2 59508  51.6376 221.4075 0002196  87.3742 272.7500 15.53716741  2114
1998-067WJ              
1 59559U 98067WJ  24115.84036078  .00092430  00000+0  14753-2 0  9991
2 59559  51.6381 219.8706 0003907  33.7179 326.4058 15.52423116  1033
1998-067WK              
1 59560U 98067WK  24115.71088917  .00052046  00000+0  86266-3 0  9996
2 59560  51.6392 220.5255 0002274  85.7043 260.1065 15.51625903   935
1998-067WL              
1 59561U 98067WL  24115.77785714  .00053523  00000+0  88635-3 0  9995
2 59561  51.6384 220.2038 0002412  69.8793 290.2456 15.51638945   985
1998-067WM              
1 59562U 98067WM  24115.84115726  .00100865  00000+0  16181-2 0  9992
2 59562  51.6379 219.8762 0002595  94.9634 265.1652 15.52244545  1017
1998-067WN              
1 59563U 98067WN  24115.84170407  .00090410  00000+0  14650-2 0  9993
2 59563  51.6382 219.8802 0002931  98.9897 261.1424 15.52016162  1000
